start=new Date('2022-12-02T00:00:00.000Z').valueOf();
sats=[{"ECCENTRICITY":"0.00016170","CENTER_NAME":"EARTH","APOAPSIS":"548.326","RA_OF_ASC_NODE":"216.2879","LAUNCH_DATE":"2021-03-11","GP_ID":"219303228","MEAN_MOTION":"15.06402276","MEAN_ANOMALY":"292.9374","OBJECT_TYPE":"PAYLOAD","OBJECT_ID":"2021-018L","MEAN_MOTION_DDOT":"0.0000000000000","COUNTRY_CODE":"US","ELEMENT_SET_NO":"999","RCS_SIZE":"LARGE","TLE_LINE1":"1 47797U 21018L   22335.78220704  .00002339  00000-0  17586-3 0  9998","MEAN_ELEMENT_THEORY":"SGP4","SEMIMAJOR_AXIS":"6925.342","PERIOD":"95.592","FILE":"3678231","OBJECT_NAME":"STARLINK-2377","REV_AT_EPOCH":"9657","CLASSIFICATION_TYPE":"U","INCLINATION":"53.0528","TLE_LINE2":"2 47797  53.0528 216.2879 0001617  67.1785 292.9374 15.06402276 96579","NORAD_CAT_ID":"47797","EPOCH":"2022-12-01T18:46:22.688256","SITE":"AFETR","PERIAPSIS":"546.087","ARG_OF_PERICENTER":"67.1785","TIME_SYSTEM":"UTC","REF_FRAME":"TEME","MEAN_MOTION_DOT":"0.00002339","EPHEMERIS_TYPE":"0","DECAY_DATE":null,"BSTAR":"0.00017586000000"},{"OBJECT_ID":"2021-018M","OBJECT_TYPE":"PAYLOAD","MEAN_ANOMALY":"307.8876","MEAN_MOTION":"15.06399655","GP_ID":"219303476","CENTER_NAME":"EARTH","ECCENTRICITY":"0.00020960","LAUNCH_DATE":"2021-03-11","APOAPSIS":"548.666","RA_OF_ASC_NODE":"191.6976","SEMIMAJOR_AXIS":"6925.350","MEAN_ELEMENT_THEORY":"SGP4","RCS_SIZE":"LARGE","TLE_LINE1":"1 47798U 21018M   22335.69052603  .00000137  00000-0  28139-4 0  9991","ELEMENT_SET_NO":"999","COUNTRY_CODE":"US","MEAN_MOTION_DDOT":"0.0000000000000","SITE":"AFETR","PERIAPSIS":"545.763","ARG_OF_PERICENTER":"52.2302","TLE_LINE2":"2 47798  53.0530 191.6976 0002096  52.2302 307.8876 15.06399655 96916","NORAD_CAT_ID":"47798","EPOCH":"2022-12-01T16:34:21.448992","INCLINATION":"53.0530","CLASSIFICATION_TYPE":"U","FILE":"3678231","PERIOD":"95.592","OBJECT_NAME":"STARLINK-2379","REV_AT_EPOCH":"9691","BSTAR":"0.00002813900000","MEAN_MOTION_DOT":"0.00000137","EPHEMERIS_TYPE":"0","DECAY_DATE":null,"REF_FRAME":"TEME","TIME_SYSTEM":"UTC"},{"GP_ID":"219304227","ECCENTRICITY":"0.00017720","CENTER_NAME":"EARTH","LAUNCH_DATE":"2021-03-11","APOAPSIS":"548.427","RA_OF_ASC_NODE":"190.8049","OBJECT_ID":"2021-018N","OBJECT_TYPE":"PAYLOAD","MEAN_ANOMALY":"301.4035","MEAN_MOTION":"15.06404635","RCS_SIZE":"LARGE","TLE_LINE1":"1 47799U 21018N   22335.88587787  .00000773  00000-0  70771-4 0  9994","ELEMENT_SET_NO":"999","MEAN_MOTION_DDOT":"0.0000000000000","COUNTRY_CODE":"US","SEMIMAJOR_AXIS":"6925.334","MEAN_ELEMENT_THEORY":"SGP4","INCLINATION":"53.0545","CLASSIFICATION_TYPE":"U","PERIOD":"95.592","FILE":"3678231","OBJECT_NAME":"STARLINK-2380","REV_AT_EPOCH":"9693","SITE":"AFETR","PERIAPSIS":"545.972","ARG_OF_PERICENTER":"58.7127","TLE_LINE2":"2 47799  53.0545 190.8049 0001772  58.7127 301.4035 15.06404635 96935","NORAD_CAT_ID":"47799","EPOCH":"2022-12-01T21:15:39.847968","MEAN_MOTION_DOT":"0.00000773","DECAY_DATE":null,"EPHEMERIS_TYPE":"0","REF_FRAME":"TEME","TIME_SYSTEM":"UTC","BSTAR":"0.00007077100000"},{"REF_FRAME":"TEME","TIME_SYSTEM":"UTC","MEAN_MOTION_DOT":"-0.00000772","EPHEMERIS_TYPE":"0","DECAY_DATE":null,"BSTAR":"-0.00003292500000","CLASSIFICATION_TYPE":"U","PERIOD":"95.592","FILE":"3678231","REV_AT_EPOCH":"9692","OBJECT_NAME":"STARLINK-2381","INCLINATION":"53.0526","TLE_LINE2":"2 47800  53.0526 191.3155 0002132  46.2549 313.8616 15.06396357 96924","NORAD_CAT_ID":"47800","EPOCH":"2022-12-01T18:36:26.239680","SITE":"AFETR","PERIAPSIS":"545.748","ARG_OF_PERICENTER":"46.2549","ELEMENT_SET_NO":"999","COUNTRY_CODE":"US","MEAN_MOTION_DDOT":"0.0000000000000","RCS_SIZE":"LARGE","TLE_LINE1":"1 47800U 21018P   22335.77530370 -.00000772  00000-0 -32925-4 0  9991","MEAN_ELEMENT_THEORY":"SGP4","SEMIMAJOR_AXIS":"6925.360","ECCENTRICITY":"0.00021320","CENTER_NAME":"EARTH","LAUNCH_DATE":"2021-03-11","APOAPSIS":"548.701","RA_OF_ASC_NODE":"191.3155","GP_ID":"219304473","MEAN_MOTION":"15.06396357","MEAN_ANOMALY":"313.8616","OBJECT_ID":"2021-018P","OBJECT_TYPE":"PAYLOAD"},{"DECAY_DATE":null,"EPHEMERIS_TYPE":"0","MEAN_MOTION_DOT":"0.00001123","TIME_SYSTEM":"UTC","REF_FRAME":"TEME","BSTAR":"0.00009430700000","INCLINATION":"53.0557","FILE":"3678231","REV_AT_EPOCH":"9685","PERIOD":"95.592","OBJECT_NAME":"STARLINK-2382","CLASSIFICATION_TYPE":"U","PERIAPSIS":"545.902","ARG_OF_PERICENTER":"56.6112","SITE":"AFETR","NORAD_CAT_ID":"47801","EPOCH":"2022-12-01T17:50:40.136640","TLE_LINE2":"2 47801  53.0557 196.5432 0001916  56.6112 303.5060 15.06395038 96850","TLE_LINE1":"1 47801U 21018Q   22335.74352010  .00001123  00000-0  94307-4 0  9993","RCS_SIZE":"LARGE","MEAN_MOTION_DDOT":"0.0000000000000","COUNTRY_CODE":"US","ELEMENT_SET_NO":"999","SEMIMAJOR_AXIS":"6925.364","MEAN_ELEMENT_THEORY":"SGP4","GP_ID":"219303728","RA_OF_ASC_NODE":"196.5432","APOAPSIS":"548.556","LAUNCH_DATE":"2021-03-11","ECCENTRICITY":"0.00019160","CENTER_NAME":"EARTH","OBJECT_TYPE":"PAYLOAD","OBJECT_ID":"2021-018Q","MEAN_MOTION":"15.06395038","MEAN_ANOMALY":"303.5060"},{"INCLINATION":"53.0552","FILE":"3677724","PERIOD":"95.593","REV_AT_EPOCH":"9617","OBJECT_NAME":"STARLINK-2383","CLASSIFICATION_TYPE":"U","SITE":"AFETR","ARG_OF_PERICENTER":"68.5025","PERIAPSIS":"546.095","TLE_LINE2":"2 47802  53.0552 218.0328 0001642  68.5025 291.6139 15.06393773 96174","NORAD_CAT_ID":"47802","EPOCH":"2022-12-01T09:23:46.135680","MEAN_MOTION_DOT":"0.00000126","DECAY_DATE":null,"EPHEMERIS_TYPE":"0","TIME_SYSTEM":"UTC","REF_FRAME":"TEME","BSTAR":"0.00002736800000","GP_ID":"219275032","ECCENTRICITY":"0.00016420","CENTER_NAME":"EARTH","APOAPSIS":"548.370","RA_OF_ASC_NODE":"218.0328","LAUNCH_DATE":"2021-03-11","OBJECT_TYPE":"PAYLOAD","OBJECT_ID":"2021-018R","MEAN_MOTION":"15.06393773","MEAN_ANOMALY":"291.6139","RCS_SIZE":"LARGE","TLE_LINE1":"1 47802U 21018R   22335.39150620  .00000126  00000-0  27368-4 0  9993","MEAN_MOTION_DDOT":"0.0000000000000","COUNTRY_CODE":"US","ELEMENT_SET_NO":"999","SEMIMAJOR_AXIS":"6925.368","MEAN_ELEMENT_THEORY":"SGP4"},{"ELEMENT_SET_NO":"999","COUNTRY_CODE":"US","MEAN_MOTION_DDOT":"0.0000000000000","TLE_LINE1":"1 47803U 21018S   22335.65366917  .00000651  00000-0  62611-4 0  9994","RCS_SIZE":"LARGE","MEAN_ELEMENT_THEORY":"SGP4","SEMIMAJOR_AXIS":"6925.354","LAUNCH_DATE":"2021-03-11","RA_OF_ASC_NODE":"191.8684","APOAPSIS":"548.336","ECCENTRICITY":"0.00016130","CENTER_NAME":"EARTH","GP_ID":"219304727","MEAN_ANOMALY":"290.9067","MEAN_MOTION":"15.06398291","OBJECT_ID":"2021-018S","OBJECT_TYPE":"PAYLOAD","REF_FRAME":"TEME","TIME_SYSTEM":"UTC","EPHEMERIS_TYPE":"0","DECAY_DATE":null,"MEAN_MOTION_DOT":"0.00000651","BSTAR":"0.00006261100000","CLASSIFICATION_TYPE":"U","FILE":"3678231","PERIOD":"95.592","REV_AT_EPOCH":"9690","OBJECT_NAME":"STARLINK-2384","INCLINATION":"53.0547","NORAD_CAT_ID":"47803","EPOCH":"2022-12-01T15:41:17.016288","TLE_LINE2":"2 47803  53.0547 191.8684 0001613  69.2094 290.9067 15.06398291 96907","ARG_OF_PERICENTER":"69.2094","PERIAPSIS":"546.102","SITE":"AFETR"},{"NORAD_CAT_ID":"47804","EPOCH":"2022-12-01T20:49:07.494240","TLE_LINE2":"2 47804  53.0531 190.9036 0001953  51.2852 308.8311 15.06403595 96930","ARG_OF_PERICENTER":"51.2852","PERIAPSIS":"545.850","SITE":"AFETR","FILE":"3678231","PERIOD":"95.592","REV_AT_EPOCH":"9693","OBJECT_NAME":"STARLINK-2385","CLASSIFICATION_TYPE":"U","INCLINATION":"53.0531","BSTAR":"0.00007283000000","TIME_SYSTEM":"UTC","REF_FRAME":"TEME","EPHEMERIS_TYPE":"0","DECAY_DATE":null,"MEAN_MOTION_DOT":"0.00000803","MEAN_MOTION":"15.06403595","MEAN_ANOMALY":"308.8311","OBJECT_TYPE":"PAYLOAD","OBJECT_ID":"2021-018T","RA_OF_ASC_NODE":"190.9036","APOAPSIS":"548.555","LAUNCH_DATE":"2021-03-11","CENTER_NAME":"EARTH","ECCENTRICITY":"0.00019530","GP_ID":"219304973","MEAN_ELEMENT_THEORY":"SGP4","SEMIMAJOR_AXIS":"6925.338","MEAN_MOTION_DDOT":"0.0000000000000","COUNTRY_CODE":"US","ELEMENT_SET_NO":"999","TLE_LINE1":"1 47804U 21018T   22335.86744785  .00000803  00000-0  72830-4 0  9994","RCS_SIZE":"LARGE"},{"BSTAR":"-0.00000127060000","TIME_SYSTEM":"UTC","REF_FRAME":"TEME","MEAN_MOTION_DOT":"-0.00000301","DECAY_DATE":null,"EPHEMERIS_TYPE":"0","TLE_LINE2":"2 47805  53.0536 191.8909 0002115  60.8939 299.2262 15.06397952 96913","NORAD_CAT_ID":"47805","EPOCH":"2022-12-01T16:50:18.309120","SITE":"AFETR","PERIAPSIS":"545.755","ARG_OF_PERICENTER":"60.8939","OBJECT_NAME":"STARLINK-2386","FILE":"3678231","PERIOD":"95.592","REV_AT_EPOCH":"9691","CLASSIFICATION_TYPE":"U","INCLINATION":"53.0536","MEAN_ELEMENT_THEORY":"SGP4","SEMIMAJOR_AXIS":"6925.355","COUNTRY_CODE":"US","MEAN_MOTION_DDOT":"0.0000000000000","ELEMENT_SET_NO":"999","RCS_SIZE":"LARGE","TLE_LINE1":"1 47805U 21018U   22335.70160080 -.00000301  00000-0 -12706-5 0  9990","MEAN_ANOMALY":"299.2262","MEAN_MOTION":"15.06397952","OBJECT_TYPE":"PAYLOAD","OBJECT_ID":"2021-018U","CENTER_NAME":"EARTH","ECCENTRICITY":"0.00021150","APOAPSIS":"548.685","RA_OF_ASC_NODE":"191.8909","LAUNCH_DATE":"2021-03-11","GP_ID":"219303229"},{"MEAN_MOTION_DOT":"-0.00000688","EPHEMERIS_TYPE":"0","DECAY_DATE":null,"REF_FRAME":"TEME","TIME_SYSTEM":"UTC","BSTAR":"-0.00002730500000","INCLINATION":"53.0560","CLASSIFICATION_TYPE":"U","FILE":"3678231","REV_AT_EPOCH":"9675","PERIOD":"95.591","OBJECT_NAME":"STARLINK-2387","SITE":"AFETR","ARG_OF_PERICENTER":"55.1337","PERIAPSIS":"545.957","TLE_LINE2":"2 47806  53.0560 206.9365 0001765  55.1337 304.9818 15.06411140 96753","NORAD_CAT_ID":"47806","EPOCH":"2022-12-01T15:20:42.375840","RCS_SIZE":"LARGE","TLE_LINE1":"1 47806U 21018V   22335.63937935 -.00000688  00000-0 -27305-4 0  9992","ELEMENT_SET_NO":"999","MEAN_MOTION_DDOT":"0.0000000000000","COUNTRY_CODE":"US","SEMIMAJOR_AXIS":"6925.314","MEAN_ELEMENT_THEORY":"SGP4","GP_ID":"219303477","ECCENTRICITY":"0.00017650","CENTER_NAME":"EARTH","LAUNCH_DATE":"2021-03-11","APOAPSIS":"548.402","RA_OF_ASC_NODE":"206.9365","OBJECT_ID":"2021-018V","OBJECT_TYPE":"PAYLOAD","MEAN_ANOMALY":"304.9818","MEAN_MOTION":"15.06411140"}];
